CCSDS_OMM_VERS = 2.0
CREATION_DATE  = 
ORIGINATOR     = 

OBJECT_NAME    = SL-16 R/B
OBJECT_ID      = 1998-043G
CENTER_NAME    = EARTH
REF_FRAME      = TEME
TIME_SYSTEM    = UTC
MEAN_ELEMENT_THEORY = SGP/SGP4

EPOCH          = 2026-02-13T10:55:14.172960
MEAN_MOTION    = 14.26043944
ECCENTRICITY   = .0010982
INCLINATION    = 98.8212
RA_OF_ASC_NODE = 357.6529
ARG_OF_PERICENTER = 85.1043
MEAN_ANOMALY   = 275.1390

EPHEMERIS_TYPE = 0
CLASSIFICATION_TYPE = U
NORAD_CAT_ID   = 25400
ELEMENT_SET_NO = 999
REV_AT_EPOCH   = 43553
BSTAR          = .48656E-4
MEAN_MOTION_DOT = .71E-6
MEAN_MOTION_DDOT = 0

CCSDS_OMM_VERS = 2.0
CREATION_DATE  = 
ORIGINATOR     = 

OBJECT_NAME    = SL-16 R/B
OBJECT_ID      = 1998-045B
CENTER_NAME    = EARTH
REF_FRAME      = TEME
TIME_SYSTEM    = UTC
MEAN_ELEMENT_THEORY = SGP/SGP4

EPOCH          = 2026-02-13T11:41:42.324288
MEAN_MOTION    = 14.16186977
ECCENTRICITY   = .0005587
INCLINATION    = 71.0086
RA_OF_ASC_NODE = 232.4703
ARG_OF_PERICENTER = 52.6588
MEAN_ANOMALY   = 307.5043

EPHEMERIS_TYPE = 0
CLASSIFICATION_TYPE = U
NORAD_CAT_ID   = 25407
ELEMENT_SET_NO = 999
REV_AT_EPOCH   = 42367
BSTAR          = .17015E-3
MEAN_MOTION_DOT = .289E-5
MEAN_MOTION_DDOT = 0

CCSDS_OMM_VERS = 2.0
CREATION_DATE  = 
ORIGINATOR     = 

OBJECT_NAME    = ISS (ZARYA)
OBJECT_ID      = 1998-067A
CENTER_NAME    = EARTH
REF_FRAME      = TEME
TIME_SYSTEM    = UTC
MEAN_ELEMENT_THEORY = SGP/SGP4

EPOCH          = 2026-02-13T10:33:41.343840
MEAN_MOTION    = 15.48580324
ECCENTRICITY   = .0011012
INCLINATION    = 51.6309
RA_OF_ASC_NODE = 192.2278
ARG_OF_PERICENTER = 93.6579
MEAN_ANOMALY   = 266.5669

EPHEMERIS_TYPE = 0
CLASSIFICATION_TYPE = U
NORAD_CAT_ID   = 25544
ELEMENT_SET_NO = 999
REV_AT_EPOCH   = 55257
BSTAR          = .15165E-3
MEAN_MOTION_DOT = .7804E-4
MEAN_MOTION_DDOT = 0

CCSDS_OMM_VERS = 2.0
CREATION_DATE  = 
ORIGINATOR     = 

OBJECT_NAME    = CZ-4B R/B
OBJECT_ID      = 1999-025C
CENTER_NAME    = EARTH
REF_FRAME      = TEME
TIME_SYSTEM    = UTC
MEAN_ELEMENT_THEORY = SGP/SGP4

EPOCH          = 2026-02-13T02:44:21.335712
MEAN_MOTION    = 14.18260304
ECCENTRICITY   = .00379759
INCLINATION    = 98.6676
RA_OF_ASC_NODE = 88.9719
ARG_OF_PERICENTER = 56.7169
MEAN_ANOMALY   = 2.2813

EPHEMERIS_TYPE = 0
CLASSIFICATION_TYPE = U
NORAD_CAT_ID   = 25732
ELEMENT_SET_NO = 999
REV_AT_EPOCH   = 38468
BSTAR          = .46244958E-4
MEAN_MOTION_DOT = .53E-6
MEAN_MOTION_DDOT = 0

CCSDS_OMM_VERS = 2.0
CREATION_DATE  = 
ORIGINATOR     = 

OBJECT_NAME    = OKEAN-O
OBJECT_ID      = 1999-039A
CENTER_NAME    = EARTH
REF_FRAME      = TEME
TIME_SYSTEM    = UTC
MEAN_ELEMENT_THEORY = SGP/SGP4

EPOCH          = 2026-02-13T04:23:15.576288
MEAN_MOTION    = 14.80294615
ECCENTRICITY   = .000184
INCLINATION    = 97.9499
RA_OF_ASC_NODE = 104.3168
ARG_OF_PERICENTER = 82.9136
MEAN_ANOMALY   = 277.2285

EPHEMERIS_TYPE = 0
CLASSIFICATION_TYPE = U
NORAD_CAT_ID   = 25860
ELEMENT_SET_NO = 999
REV_AT_EPOCH   = 43076
BSTAR          = .98013696E-4
MEAN_MOTION_DOT = .694E-5
MEAN_MOTION_DDOT = 0

CCSDS_OMM_VERS = 2.0
CREATION_DATE  = 
ORIGINATOR     = 

OBJECT_NAME    = SL-16 R/B
OBJECT_ID      = 1999-039B
CENTER_NAME    = EARTH
REF_FRAME      = TEME
TIME_SYSTEM    = UTC
MEAN_ELEMENT_THEORY = SGP/SGP4

EPOCH          = 2026-02-13T02:50:21.766272
MEAN_MOTION    = 14.81696350
ECCENTRICITY   = .00142873
INCLINATION    = 98.0021
RA_OF_ASC_NODE = 103.2446
ARG_OF_PERICENTER = 342.4776
MEAN_ANOMALY   = 17.5942

EPHEMERIS_TYPE = 0
CLASSIFICATION_TYPE = U
NORAD_CAT_ID   = 25861
ELEMENT_SET_NO = 999
REV_AT_EPOCH   = 43322
BSTAR          = .84230328E-4
MEAN_MOTION_DOT = .61E-5
MEAN_MOTION_DDOT = 0

CCSDS_OMM_VERS = 2.0
CREATION_DATE  = 
ORIGINATOR     = 

OBJECT_NAME    = DELTA 2 R/B
OBJECT_ID      = 1999-041E
CENTER_NAME    = EARTH
REF_FRAME      = TEME
TIME_SYSTEM    = UTC
MEAN_ELEMENT_THEORY = SGP/SGP4

EPOCH          = 2026-02-13T08:55:37.013088
MEAN_MOTION    = 14.11742827
ECCENTRICITY   = .0502255
INCLINATION    = 51.7655
RA_OF_ASC_NODE = 38.3920
ARG_OF_PERICENTER = 276.6003
MEAN_ANOMALY   = 77.8017

EPHEMERIS_TYPE = 0
CLASSIFICATION_TYPE = U
NORAD_CAT_ID   = 25876
ELEMENT_SET_NO = 999
REV_AT_EPOCH   = 35959
BSTAR          = .39988E-3
MEAN_MOTION_DOT = .2254E-4
MEAN_MOTION_DDOT = 0

CCSDS_OMM_VERS = 2.0
CREATION_DATE  = 
ORIGINATOR     = 

OBJECT_NAME    = HELIOS 1B
OBJECT_ID      = 1999-064A
CENTER_NAME    = EARTH
REF_FRAME      = TEME
TIME_SYSTEM    = UTC
MEAN_ELEMENT_THEORY = SGP/SGP4

EPOCH          = 2026-02-13T07:09:05.714784
MEAN_MOTION    = 14.87595595
ECCENTRICITY   = .0002201
INCLINATION    = 98.1724
RA_OF_ASC_NODE = 305.8216
ARG_OF_PERICENTER = 109.1031
MEAN_ANOMALY   = 251.0422

EPHEMERIS_TYPE = 0
CLASSIFICATION_TYPE = U
NORAD_CAT_ID   = 25977
ELEMENT_SET_NO = 999
REV_AT_EPOCH   = 68163
BSTAR          = .21955E-3
MEAN_MOTION_DOT = .1937E-4
MEAN_MOTION_DDOT = 0

CCSDS_OMM_VERS = 2.0
CREATION_DATE  = 
ORIGINATOR     = 

OBJECT_NAME    = TERRA
OBJECT_ID      = 1999-068A
CENTER_NAME    = EARTH
REF_FRAME      = TEME
TIME_SYSTEM    = UTC
MEAN_ELEMENT_THEORY = SGP/SGP4

EPOCH          = 2026-02-13T11:30:47.141856
MEAN_MOTION    = 14.60988148
ECCENTRICITY   = .0001039
INCLINATION    = 97.9646
RA_OF_ASC_NODE = 98.8329
ARG_OF_PERICENTER = 237.1345
MEAN_ANOMALY   = 230.9240

EPHEMERIS_TYPE = 0
CLASSIFICATION_TYPE = U
NORAD_CAT_ID   = 25994
ELEMENT_SET_NO = 999
REV_AT_EPOCH   = 39154
BSTAR          = .11257E-3
MEAN_MOTION_DOT = .507E-5
MEAN_MOTION_DDOT = 0

CCSDS_OMM_VERS = 2.0
CREATION_DATE  = 
ORIGINATOR     = 

OBJECT_NAME    = SL-16 R/B
OBJECT_ID      = 2000-006B
CENTER_NAME    = EARTH
REF_FRAME      = TEME
TIME_SYSTEM    = UTC
MEAN_ELEMENT_THEORY = SGP/SGP4

EPOCH          = 2026-02-13T11:54:47.923200
MEAN_MOTION    = 14.15819516
ECCENTRICITY   = .001818
INCLINATION    = 71.0029
RA_OF_ASC_NODE = 148.7069
ARG_OF_PERICENTER = 224.4187
MEAN_ANOMALY   = 135.5478

EPHEMERIS_TYPE = 0
CLASSIFICATION_TYPE = U
NORAD_CAT_ID   = 26070
ELEMENT_SET_NO = 999
REV_AT_EPOCH   = 34513
BSTAR          = -.93333E-4
MEAN_MOTION_DOT = -.232E-5
MEAN_MOTION_DDOT = 0

CCSDS_OMM_VERS = 2.0
CREATION_DATE  = 
ORIGINATOR     = 

OBJECT_NAME    = TITAN 4B R/B
OBJECT_ID      = 2000-047B
CENTER_NAME    = EARTH
REF_FRAME      = TEME
TIME_SYSTEM    = UTC
MEAN_ELEMENT_THEORY = SGP/SGP4

EPOCH          = 2026-02-13T12:15:05.994720
MEAN_MOTION    = 15.09354452
ECCENTRICITY   = .0037035
INCLINATION    = 67.9893
RA_OF_ASC_NODE = 108.4920
ARG_OF_PERICENTER = 65.0759
MEAN_ANOMALY   = 295.4231

EPHEMERIS_TYPE = 0
CLASSIFICATION_TYPE = U
NORAD_CAT_ID   = 26474
ELEMENT_SET_NO = 999
REV_AT_EPOCH   = 38926
BSTAR          = .21487E-3
MEAN_MOTION_DOT = .3357E-4
MEAN_MOTION_DDOT = 0

CCSDS_OMM_VERS = 2.0
CREATION_DATE  = 
ORIGINATOR     = 

OBJECT_NAME    = ENVISAT
OBJECT_ID      = 2002-009A
CENTER_NAME    = EARTH
REF_FRAME      = TEME
TIME_SYSTEM    = UTC
MEAN_ELEMENT_THEORY = SGP/SGP4

EPOCH          = 2026-02-13T11:52:22.608768
MEAN_MOTION    = 14.39027803
ECCENTRICITY   = .000134
INCLINATION    = 98.3686
RA_OF_ASC_NODE = 358.6746
ARG_OF_PERICENTER = 87.9974
MEAN_ANOMALY   = 25.3983

EPHEMERIS_TYPE = 0
CLASSIFICATION_TYPE = U
NORAD_CAT_ID   = 27386
ELEMENT_SET_NO = 999
REV_AT_EPOCH   = 25569
BSTAR          = .60749E-4
MEAN_MOTION_DOT = .145E-5
MEAN_MOTION_DDOT = 0

