SL-16 R/B               
1 25400U 98043G   26044.45502515  .00000071  00000+0  48656-4 0  9998
2 25400  98.8212 357.6529 0010982  85.1043 275.1390 14.26043944435535
SL-16 R/B               
1 25407U 98045B   26044.48729542  .00000289  00000+0  17015-3 0  9996
2 25407  71.0086 232.4703 0005587  52.6588 307.5043 14.16186977423676
ISS (ZARYA)             
1 25544U 98067A   26044.44006185  .00007804  00000+0  15165-3 0  9993
2 25544  51.6309 192.2278 0011012  93.6579 266.5669 15.48580324552575
CZ-4B R/B               
1 25732U 99025C   26044.11413583  .00000053  00000+0  46245-4 0  9998
2 25732  98.6676  88.9719 0037975  56.7169   2.2813 14.18260304384684
OKEAN-O                 
1 25860U 99039A   26044.18281917  .00000694  00000+0  98014-4 0  9998
2 25860  97.9499 104.3168 0001840  82.9136 277.2285 14.80294615430768
SL-16 R/B               
1 25861U 99039B   26044.11830748  .00000610  00000+0  84230-4 0  9997
2 25861  98.0021 103.2446 0014287 342.4776  17.5942 14.81696350433224
DELTA 2 R/B             
1 25876U 99041E   26044.37195617  .00002254  00000+0  39988-3 0  9998
2 25876  51.7655  38.3920 0502255 276.6003  77.8017 14.11742827359595
HELIOS 1B               
1 25977U 99064A   26044.29798281  .00001937  00000+0  21955-3 0  9994
2 25977  98.1724 305.8216 0002201 109.1031 251.0422 14.87595595681636
TERRA                   
1 25994U 99068A   26044.47971229  .00000507  00000+0  11257-3 0  9998
2 25994  97.9646  98.8329 0001039 237.1345 230.9240 14.60988148391540
SL-16 R/B               
1 26070U 00006B   26044.49638800 -.00000232  00000+0 -93333-4 0  9998
2 26070  71.0029 148.7069 0018180 224.4187 135.5478 14.15819516345137
TITAN 4B R/B            
1 26474U 00047B   26044.51048605  .00003357  00000+0  21487-3 0  9991
2 26474  67.9893 108.4920 0037035  65.0759 295.4231 15.09354452389263
ENVISAT                 
1 27386U 02009A   26044.49470612  .00000145  00000+0  60749-4 0  9995
2 27386  98.3686 358.6746 0001340  87.9974  25.3983 14.39027803255693
